start=new Date('2023-05-31T00:00:00.000Z').valueOf();
sats=[{"FILE":"3921192","COUNTRY_CODE":"US","MEAN_MOTION_DDOT":"0.0000000000000","OBJECT_ID":"2021-038R","CENTER_NAME":"EARTH","MEAN_MOTION_DOT":"-0.00001982","EPOCH":"2023-05-30T21:41:03.475680","OBJECT_NAME":"STARLINK-2623","TLE_LINE1":"1 48368U 21038R   23150.90351245 -.00001982  00000-0 -11424-3 0  9990","NORAD_CAT_ID":"48368","APOAPSIS":"548.007","REV_AT_EPOCH":"11436","EPHEMERIS_TYPE":"0","ARG_OF_PERICENTER":"99.2444","TIME_SYSTEM":"UTC","MEAN_MOTION":"15.06397401","OBJECT_TYPE":"PAYLOAD","INCLINATION":"53.0533","MEAN_ELEMENT_THEORY":"SGP4","SITE":"AFETR","CLASSIFICATION_TYPE":"U","BSTAR":"-0.00011424000000","LAUNCH_DATE":"2021-05-04","RCS_SIZE":"LARGE","ECCENTRICITY":"0.00011340","DECAY_DATE":null,"PERIOD":"95.592","GP_ID":"232852284","RA_OF_ASC_NODE":"222.9615","TLE_LINE2":"2 48368  53.0533 222.9615 0001134  99.2444 260.8673 15.06397401114361","ELEMENT_SET_NO":"999","MEAN_ANOMALY":"260.8673","SEMIMAJOR_AXIS":"6925.357","REF_FRAME":"TEME","PERIAPSIS":"546.436"},{"DECAY_DATE":null,"PERIOD":"95.593","RA_OF_ASC_NODE":"222.6002","TLE_LINE2":"2 48369  53.0533 222.6002 0000938 103.5524 256.5569 15.06391266114367","GP_ID":"232852535","ELEMENT_SET_NO":"999","PERIAPSIS":"546.591","REF_FRAME":"TEME","MEAN_ANOMALY":"256.5569","SEMIMAJOR_AXIS":"6925.375","MEAN_ELEMENT_THEORY":"SGP4","BSTAR":"0.00091356000000","SITE":"AFETR","CLASSIFICATION_TYPE":"U","LAUNCH_DATE":"2021-05-04","RCS_SIZE":"LARGE","ECCENTRICITY":"0.00009380","APOAPSIS":"547.890","ARG_OF_PERICENTER":"103.5524","REV_AT_EPOCH":"11436","EPHEMERIS_TYPE":"0","TIME_SYSTEM":"UTC","INCLINATION":"53.0533","MEAN_MOTION":"15.06391266","OBJECT_TYPE":"PAYLOAD","MEAN_MOTION_DDOT":"0.0000000000000","OBJECT_ID":"2021-038S","FILE":"3921192","COUNTRY_CODE":"US","MEAN_MOTION_DOT":"0.00013349","CENTER_NAME":"EARTH","OBJECT_NAME":"STARLINK-2641","TLE_LINE1":"1 48369U 21038S   23150.92190763  .00013349  00000-0  91356-3 0  9999","EPOCH":"2023-05-30T22:07:32.819232","NORAD_CAT_ID":"48369"},{"NORAD_CAT_ID":"48370","TLE_LINE1":"1 48370U 21038T   23150.91822271  .00011075  00000-0  76141-3 0  9995","OBJECT_NAME":"STARLINK-2621","EPOCH":"2023-05-30T22:02:14.442144","MEAN_MOTION_DOT":"0.00011075","CENTER_NAME":"EARTH","OBJECT_ID":"2021-038T","MEAN_MOTION_DDOT":"0.0000000000000","COUNTRY_CODE":"US","FILE":"3921192","INCLINATION":"53.0528","MEAN_MOTION":"15.06390744","OBJECT_TYPE":"PAYLOAD","TIME_SYSTEM":"UTC","ARG_OF_PERICENTER":"108.3245","EPHEMERIS_TYPE":"0","REV_AT_EPOCH":"11436","APOAPSIS":"547.966","ECCENTRICITY":"0.00010460","RCS_SIZE":"LARGE","LAUNCH_DATE":"2021-05-04","BSTAR":"0.00076141000000","CLASSIFICATION_TYPE":"U","SITE":"AFETR","MEAN_ELEMENT_THEORY":"SGP4","PERIAPSIS":"546.518","REF_FRAME":"TEME","SEMIMAJOR_AXIS":"6925.377","MEAN_ANOMALY":"251.7858","ELEMENT_SET_NO":"999","TLE_LINE2":"2 48370  53.0528 222.6134 0001046 108.3245 251.7858 15.06390744114361","RA_OF_ASC_NODE":"222.6134","GP_ID":"232853286","DECAY_DATE":null,"PERIOD":"95.593"},{"ECCENTRICITY":"0.00010080","RCS_SIZE":"LARGE","LAUNCH_DATE":"2021-05-04","BSTAR":"0.00085929000000","CLASSIFICATION_TYPE":"U","SITE":"AFETR","MEAN_ELEMENT_THEORY":"SGP4","REF_FRAME":"TEME","PERIAPSIS":"546.546","SEMIMAJOR_AXIS":"6925.379","MEAN_ANOMALY":"246.7023","ELEMENT_SET_NO":"999","TLE_LINE2":"2 48371  53.0535 222.6342 0001008 113.4071 246.7023 15.06390054114365","RA_OF_ASC_NODE":"222.6342","GP_ID":"232851534","DECAY_DATE":null,"PERIOD":"95.593","NORAD_CAT_ID":"48371","TLE_LINE1":"1 48371U 21038U   23150.91453713  .00012537  00000-0  85929-3 0  9995","OBJECT_NAME":"STARLINK-2589","EPOCH":"2023-05-30T21:56:56.008032","MEAN_MOTION_DOT":"0.00012537","CENTER_NAME":"EARTH","OBJECT_ID":"2021-038U","MEAN_MOTION_DDOT":"0.0000000000000","COUNTRY_CODE":"US","FILE":"3921192","INCLINATION":"53.0535","OBJECT_TYPE":"PAYLOAD","MEAN_MOTION":"15.06390054","TIME_SYSTEM":"UTC","ARG_OF_PERICENTER":"113.4071","REV_AT_EPOCH":"11436","EPHEMERIS_TYPE":"0","APOAPSIS":"547.942"},{"APOAPSIS":"548.033","EPHEMERIS_TYPE":"0","REV_AT_EPOCH":"11436","ARG_OF_PERICENTER":"97.2018","TIME_SYSTEM":"UTC","OBJECT_TYPE":"PAYLOAD","MEAN_MOTION":"15.06399311","INCLINATION":"53.0543","COUNTRY_CODE":"US","FILE":"3921192","OBJECT_ID":"2021-038V","MEAN_MOTION_DDOT":"0.0000000000000","CENTER_NAME":"EARTH","MEAN_MOTION_DOT":"0.00001950","EPOCH":"2023-05-30T21:51:38.144160","OBJECT_NAME":"STARLINK-2572","TLE_LINE1":"1 48372U 21038V   23150.91085815  .00001950  00000-0  14975-3 0  9990","NORAD_CAT_ID":"48372","DECAY_DATE":null,"PERIOD":"95.592","GP_ID":"232851784","TLE_LINE2":"2 48372  53.0543 222.6486 0001180  97.2018 262.9105 15.06399311114361","RA_OF_ASC_NODE":"222.6486","ELEMENT_SET_NO":"999","SEMIMAJOR_AXIS":"6925.351","MEAN_ANOMALY":"262.9105","PERIAPSIS":"546.398","REF_FRAME":"TEME","MEAN_ELEMENT_THEORY":"SGP4","CLASSIFICATION_TYPE":"U","SITE":"AFETR","BSTAR":"0.00014975000000","RCS_SIZE":"LARGE","LAUNCH_DATE":"2021-05-04","ECCENTRICITY":"0.00011800"},{"OBJECT_TYPE":"PAYLOAD","MEAN_MOTION":"15.06392343","INCLINATION":"53.0540","TIME_SYSTEM":"UTC","REV_AT_EPOCH":"11436","EPHEMERIS_TYPE":"0","ARG_OF_PERICENTER":"108.4174","APOAPSIS":"547.990","NORAD_CAT_ID":"48373","EPOCH":"2023-05-30T21:46:19.178688","TLE_LINE1":"1 48373U 21038W   23150.90716642  .00011163  00000-0  76730-3 0  9993","OBJECT_NAME":"STARLINK-2609","CENTER_NAME":"EARTH","MEAN_MOTION_DOT":"0.00011163","COUNTRY_CODE":"US","FILE":"3921192","OBJECT_ID":"2021-038W","MEAN_MOTION_DDOT":"0.0000000000000","SEMIMAJOR_AXIS":"6925.372","MEAN_ANOMALY":"251.6934","REF_FRAME":"TEME","PERIAPSIS":"546.484","ELEMENT_SET_NO":"999","GP_ID":"232853036","TLE_LINE2":"2 48373  53.0540 222.6665 0001087 108.4174 251.6934 15.06392343114365","RA_OF_ASC_NODE":"222.6665","DECAY_DATE":null,"PERIOD":"95.593","ECCENTRICITY":"0.00010870","RCS_SIZE":"LARGE","LAUNCH_DATE":"2021-05-04","CLASSIFICATION_TYPE":"U","SITE":"AFETR","BSTAR":"0.00076730000000","MEAN_ELEMENT_THEORY":"SGP4"},{"NORAD_CAT_ID":"48374","EPOCH":"2023-05-30T21:39:38.877984","OBJECT_NAME":"STARLINK-2604","TLE_LINE1":"1 48374U 21038X   23150.90253331  .00009806  00000-0  67640-3 0  9996","CENTER_NAME":"EARTH","MEAN_MOTION_DOT":"0.00009806","COUNTRY_CODE":"US","FILE":"3921192","OBJECT_ID":"2021-038X","MEAN_MOTION_DDOT":"0.0000000000000","OBJECT_TYPE":"PAYLOAD","MEAN_MOTION":"15.06391722","INCLINATION":"53.0531","TIME_SYSTEM":"UTC","REV_AT_EPOCH":"11436","EPHEMERIS_TYPE":"0","ARG_OF_PERICENTER":"118.2627","APOAPSIS":"547.846","ECCENTRICITY":"0.00008760","RCS_SIZE":"LARGE","LAUNCH_DATE":"2021-05-04","CLASSIFICATION_TYPE":"U","SITE":"AFETR","BSTAR":"0.00067640000000","MEAN_ELEMENT_THEORY":"SGP4","SEMIMAJOR_AXIS":"6925.374","MEAN_ANOMALY":"241.8450","REF_FRAME":"TEME","PERIAPSIS":"546.632","ELEMENT_SET_NO":"999","GP_ID":"232852786","TLE_LINE2":"2 48374  53.0531 222.6747 0000876 118.2627 241.8450 15.06391722114368","RA_OF_ASC_NODE":"222.6747","PERIOD":"95.593","DECAY_DATE":null},{"TIME_SYSTEM":"UTC","MEAN_MOTION":"15.06396513","OBJECT_TYPE":"PAYLOAD","INCLINATION":"53.0533","APOAPSIS":"547.998","EPHEMERIS_TYPE":"0","REV_AT_EPOCH":"11436","ARG_OF_PERICENTER":"95.8664","EPOCH":"2023-05-30T21:35:42.308736","OBJECT_NAME":"STARLINK-2603","TLE_LINE1":"1 48375U 21038Y   23150.89979524  .00011186  00000-0  76870-3 0  9993","NORAD_CAT_ID":"48375","FILE":"3921192","COUNTRY_CODE":"US","MEAN_MOTION_DDOT":"0.0000000000000","OBJECT_ID":"2021-038Y","CENTER_NAME":"EARTH","MEAN_MOTION_DOT":"0.00011186","ELEMENT_SET_NO":"999","MEAN_ANOMALY":"264.2452","SEMIMAJOR_AXIS":"6925.359","REF_FRAME":"TEME","PERIAPSIS":"546.451","DECAY_DATE":null,"PERIOD":"95.592","GP_ID":"232852035","RA_OF_ASC_NODE":"222.7003","TLE_LINE2":"2 48375  53.0533 222.7003 0001117  95.8664 264.2452 15.06396513114361","LAUNCH_DATE":"2021-05-04","RCS_SIZE":"LARGE","ECCENTRICITY":"0.00011170","MEAN_ELEMENT_THEORY":"SGP4","SITE":"AFETR","CLASSIFICATION_TYPE":"U","BSTAR":"0.00076870000000"},{"MEAN_MOTION_DOT":"0.00004428","CENTER_NAME":"EARTH","MEAN_MOTION_DDOT":"0.0000000000000","OBJECT_ID":"2021-038Z","FILE":"3921192","COUNTRY_CODE":"US","NORAD_CAT_ID":"48376","TLE_LINE1":"1 48376U 21038Z   23150.89610658  .00004428  00000-0  31604-3 0  9991","OBJECT_NAME":"STARLINK-2610","EPOCH":"2023-05-30T21:30:23.608512","ARG_OF_PERICENTER":"114.9516","REV_AT_EPOCH":"11436","EPHEMERIS_TYPE":"0","APOAPSIS":"548.001","INCLINATION":"53.0539","MEAN_MOTION":"15.06391881","OBJECT_TYPE":"PAYLOAD","TIME_SYSTEM":"UTC","BSTAR":"0.00031604000000","SITE":"AFETR","CLASSIFICATION_TYPE":"U","MEAN_ELEMENT_THEORY":"SGP4","ECCENTRICITY":"0.00011010","LAUNCH_DATE":"2021-05-04","RCS_SIZE":"LARGE","RA_OF_ASC_NODE":"222.7164","TLE_LINE2":"2 48376  53.0539 222.7164 0001101 114.9516 245.1587 15.06391881114368","GP_ID":"232852285","DECAY_DATE":null,"PERIOD":"95.593","REF_FRAME":"TEME","PERIAPSIS":"546.476","MEAN_ANOMALY":"245.1587","SEMIMAJOR_AXIS":"6925.373","ELEMENT_SET_NO":"999"},{"NORAD_CAT_ID":"48377","OBJECT_NAME":"STARLINK-2499","TLE_LINE1":"1 48377U 21038AA  23150.89242144  .00011159  00000-0  76705-3 0  9993","EPOCH":"2023-05-30T21:25:05.212416","MEAN_MOTION_DOT":"0.00011159","CENTER_NAME":"EARTH","MEAN_MOTION_DDOT":"0.0000000000000","OBJECT_ID":"2021-038AA","FILE":"3921192","COUNTRY_CODE":"US","INCLINATION":"53.0537","MEAN_MOTION":"15.06389284","OBJECT_TYPE":"PAYLOAD","TIME_SYSTEM":"UTC","ARG_OF_PERICENTER":"99.1280","REV_AT_EPOCH":"11436","EPHEMERIS_TYPE":"0","APOAPSIS":"547.731","ECCENTRICITY":"0.00007000","LAUNCH_DATE":"2021-05-04","RCS_SIZE":"LARGE","BSTAR":"0.00076705000000","SITE":"AFETR","CLASSIFICATION_TYPE":"U","MEAN_ELEMENT_THEORY":"SGP4","REF_FRAME":"TEME","PERIAPSIS":"546.762","MEAN_ANOMALY":"260.9788","SEMIMAJOR_AXIS":"6925.381","ELEMENT_SET_NO":"999","RA_OF_ASC_NODE":"222.7319","TLE_LINE2":"2 48377  53.0537 222.7319 0000700  99.1280 260.9788 15.06389284114367","GP_ID":"232852536","DECAY_DATE":null,"PERIOD":"95.593"}];
